start=new Date('2021-11-30T00:00:00.000Z').valueOf();
sats=[{"MEAN_MOTION":"15.69785837","PERIAPSIS":"357.243","RCS_SIZE":"LARGE","INCLINATION":"69.9990","EPHEMERIS_TYPE":"0","MEAN_ANOMALY":"124.6184","MEAN_ELEMENT_THEORY":"SGP4","CLASSIFICATION_TYPE":"U","MEAN_MOTION_DOT":"-0.00045728","ECCENTRICITY":"0.00033680","LAUNCH_DATE":"2021-09-14","BSTAR":"-0.00038278000000","OBJECT_NAME":"STARLINK-3116","CENTER_NAME":"EARTH","OBJECT_TYPE":"PAYLOAD","REF_FRAME":"TEME","TIME_SYSTEM":"UTC","OBJECT_ID":"2021-082S","APOAPSIS":"361.781","TLE_LINE1":"1 49146U 21082S   21333.91667824 -.00045728  00000-0 -38278-3 0  9991","FILE":"3227094","ARG_OF_PERICENTER":"276.6623","EPOCH":"2021-11-29T22:00:00.999936","MEAN_MOTION_DDOT":"0.0000000000000","SITE":"AFWTR","RA_OF_ASC_NODE":"271.0102","COUNTRY_CODE":"US","PERIOD":"91.732","ELEMENT_SET_NO":"999","GP_ID":"190751681","REV_AT_EPOCH":"370","NORAD_CAT_ID":"49146","SEMIMAJOR_AXIS":"6737.647","TLE_LINE2":"2 49146  69.9990 271.0102 0003368 276.6623 124.6184 15.69785837  3708","DECAY_DATE":null},{"EPOCH":"2021-11-29T22:00:00.999936","ARG_OF_PERICENTER":"278.5624","COUNTRY_CODE":"US","RA_OF_ASC_NODE":"271.0102","SITE":"AFWTR","MEAN_MOTION_DDOT":"0.0000000000000","SEMIMAJOR_AXIS":"6737.638","REV_AT_EPOCH":"370","NORAD_CAT_ID":"49147","PERIOD":"91.732","GP_ID":"190751278","ELEMENT_SET_NO":"999","DECAY_DATE":null,"TLE_LINE2":"2 49147  69.9977 271.0102 0003496 278.5624 118.4457 15.69789038  3709","RCS_SIZE":"LARGE","INCLINATION":"69.9977","EPHEMERIS_TYPE":"0","MEAN_ELEMENT_THEORY":"SGP4","MEAN_ANOMALY":"118.4457","PERIAPSIS":"357.147","MEAN_MOTION":"15.69789038","OBJECT_NAME":"STARLINK-3071","CLASSIFICATION_TYPE":"U","MEAN_MOTION_DOT":"-0.00042216","BSTAR":"-0.00035304000000","LAUNCH_DATE":"2021-09-14","ECCENTRICITY":"0.00034960","OBJECT_ID":"2021-082T","TIME_SYSTEM":"UTC","OBJECT_TYPE":"PAYLOAD","REF_FRAME":"TEME","CENTER_NAME":"EARTH","FILE":"3227094","APOAPSIS":"361.858","TLE_LINE1":"1 49147U 21082T   21333.91667824 -.00042216  00000-0 -35304-3 0  9998"},{"MEAN_MOTION":"15.69740911","PERIAPSIS":"357.155","RCS_SIZE":"LARGE","EPHEMERIS_TYPE":"0","INCLINATION":"69.9992","MEAN_ANOMALY":"130.1094","MEAN_ELEMENT_THEORY":"SGP4","CLASSIFICATION_TYPE":"U","MEAN_MOTION_DOT":"-0.00006256","BSTAR":"-0.00005068300000","LAUNCH_DATE":"2021-09-14","ECCENTRICITY":"0.00036880","OBJECT_NAME":"STARLINK-3048","CENTER_NAME":"EARTH","OBJECT_TYPE":"PAYLOAD","REF_FRAME":"TEME","OBJECT_ID":"2021-082U","TIME_SYSTEM":"UTC","TLE_LINE1":"1 49148U 21082U   21333.91667824 -.00006256  00000-0 -50683-4 0  9991","APOAPSIS":"362.125","FILE":"3227094","ARG_OF_PERICENTER":"277.5396","EPOCH":"2021-11-29T22:00:00.999936","MEAN_MOTION_DDOT":"0.0000000000000","SITE":"AFWTR","COUNTRY_CODE":"US","RA_OF_ASC_NODE":"271.0048","PERIOD":"91.735","GP_ID":"190752020","ELEMENT_SET_NO":"999","REV_AT_EPOCH":"370","NORAD_CAT_ID":"49148","SEMIMAJOR_AXIS":"6737.775","TLE_LINE2":"2 49148  69.9992 271.0048 0003688 277.5396 130.1094 15.69740911  3709","DECAY_DATE":null},{"PERIOD":"93.537","GP_ID":"190751150","ELEMENT_SET_NO":"999","REV_AT_EPOCH":"369","NORAD_CAT_ID":"49149","SEMIMAJOR_AXIS":"6825.728","TLE_LINE2":"2 49149  70.0002 272.2733 0003425 279.1906  32.3468 15.39498634  3698","DECAY_DATE":null,"ARG_OF_PERICENTER":"279.1906","EPOCH":"2021-11-29T22:00:00.999936","MEAN_MOTION_DDOT":"0.0000000000000","SITE":"AFWTR","COUNTRY_CODE":"US","RA_OF_ASC_NODE":"272.2733","CENTER_NAME":"EARTH","OBJECT_TYPE":"PAYLOAD","REF_FRAME":"TEME","OBJECT_ID":"2021-082V","TIME_SYSTEM":"UTC","TLE_LINE1":"1 49149U 21082V   21333.91667824 -.00662806  00000-0 -18097-1 0  9991","APOAPSIS":"449.931","FILE":"3227094","MEAN_MOTION":"15.39498634","PERIAPSIS":"445.255","INCLINATION":"70.0002","RCS_SIZE":"LARGE","EPHEMERIS_TYPE":"0","MEAN_ELEMENT_THEORY":"SGP4","MEAN_ANOMALY":"32.3468","MEAN_MOTION_DOT":"-0.00662806","CLASSIFICATION_TYPE":"U","LAUNCH_DATE":"2021-09-14","BSTAR":"-0.01809700000000","ECCENTRICITY":"0.00034250","OBJECT_NAME":"STARLINK-3053"},{"TLE_LINE1":"1 49150U 21082W   21333.91667824 -.00662943  00000-0 -18050-1 0  9994","APOAPSIS":"449.725","FILE":"3227094","CENTER_NAME":"EARTH","OBJECT_TYPE":"PAYLOAD","REF_FRAME":"TEME","TIME_SYSTEM":"UTC","OBJECT_ID":"2021-082W","CLASSIFICATION_TYPE":"U","MEAN_MOTION_DOT":"-0.00662943","LAUNCH_DATE":"2021-09-14","ECCENTRICITY":"0.00034920","BSTAR":"-0.01805000000000","OBJECT_NAME":"STARLINK-3104","MEAN_MOTION":"15.39583732","PERIAPSIS":"444.958","RCS_SIZE":"LARGE","INCLINATION":"70.0003","EPHEMERIS_TYPE":"0","MEAN_ELEMENT_THEORY":"SGP4","MEAN_ANOMALY":"42.6956","TLE_LINE2":"2 49150  70.0003 272.2710 0003492 281.8089  42.6956 15.39583732  3681","DECAY_DATE":null,"PERIOD":"93.532","GP_ID":"190751914","ELEMENT_SET_NO":"999","REV_AT_EPOCH":"368","NORAD_CAT_ID":"49150","SEMIMAJOR_AXIS":"6825.476","MEAN_MOTION_DDOT":"0.0000000000000","SITE":"AFWTR","RA_OF_ASC_NODE":"272.2710","COUNTRY_CODE":"US","ARG_OF_PERICENTER":"281.8089","EPOCH":"2021-11-29T22:00:00.999936"},{"MEAN_MOTION_DDOT":"0.0000000000000","SITE":"AFWTR","COUNTRY_CODE":"US","RA_OF_ASC_NODE":"270.9947","ARG_OF_PERICENTER":"278.2461","EPOCH":"2021-11-29T22:00:00.999936","TLE_LINE2":"2 49151  69.9982 270.9947 0003693 278.2461 131.5498 15.69812824 13364","DECAY_DATE":null,"PERIOD":"91.731","ELEMENT_SET_NO":"999","GP_ID":"190724283","REV_AT_EPOCH":"1336","NORAD_CAT_ID":"49151","SEMIMAJOR_AXIS":"6737.570","MEAN_MOTION_DOT":"-0.00122501","CLASSIFICATION_TYPE":"U","BSTAR":"-0.00103660000000","LAUNCH_DATE":"2021-09-14","ECCENTRICITY":"0.00036930","OBJECT_NAME":"STARLINK-3102","MEAN_MOTION":"15.69812824","PERIAPSIS":"356.946","RCS_SIZE":"LARGE","INCLINATION":"69.9982","EPHEMERIS_TYPE":"0","MEAN_ELEMENT_THEORY":"SGP4","MEAN_ANOMALY":"131.5498","APOAPSIS":"361.923","TLE_LINE1":"1 49151U 21082X   21333.91667824 -.00122501  00000-0 -10366-2 0  9999","FILE":"3226915","CENTER_NAME":"EARTH","OBJECT_TYPE":"PAYLOAD","REF_FRAME":"TEME","TIME_SYSTEM":"UTC","OBJECT_ID":"2021-082X"},{"EPOCH":"2021-11-29T22:00:00.999936","ARG_OF_PERICENTER":"280.3559","RA_OF_ASC_NODE":"270.9901","COUNTRY_CODE":"US","SITE":"AFWTR","MEAN_MOTION_DDOT":"0.0000000000000","SEMIMAJOR_AXIS":"6737.705","REV_AT_EPOCH":"1328","NORAD_CAT_ID":"49152","PERIOD":"91.733","GP_ID":"190724217","ELEMENT_SET_NO":"999","DECAY_DATE":null,"TLE_LINE2":"2 49152  69.9990 270.9901 0003482 280.3559 137.9276 15.69765354 13282","RCS_SIZE":"LARGE","EPHEMERIS_TYPE":"0","INCLINATION":"69.9990","MEAN_ANOMALY":"137.9276","MEAN_ELEMENT_THEORY":"SGP4","PERIAPSIS":"357.224","MEAN_MOTION":"15.69765354","OBJECT_NAME":"STARLINK-3081","MEAN_MOTION_DOT":"-0.00002427","CLASSIFICATION_TYPE":"U","LAUNCH_DATE":"2021-09-14","ECCENTRICITY":"0.00034820","BSTAR":"-0.00001854200000","TIME_SYSTEM":"UTC","OBJECT_ID":"2021-082Y","OBJECT_TYPE":"PAYLOAD","REF_FRAME":"TEME","CENTER_NAME":"EARTH","FILE":"3226922","APOAPSIS":"361.916","TLE_LINE1":"1 49152U 21082Y   21333.91667824 -.00002427  00000-0 -18542-4 0  9990"},{"OBJECT_NAME":"STARLINK-3072","LAUNCH_DATE":"2021-09-14","BSTAR":"-0.00047001000000","ECCENTRICITY":"0.00035320","CLASSIFICATION_TYPE":"U","MEAN_MOTION_DOT":"-0.00056039","MEAN_MOTION":"15.69788172","MEAN_ANOMALY":"246.3233","MEAN_ELEMENT_THEORY":"SGP4","INCLINATION":"69.9993","RCS_SIZE":"LARGE","EPHEMERIS_TYPE":"0","PERIAPSIS":"357.125","FILE":"3227082","APOAPSIS":"361.885","TLE_LINE1":"1 49153U 21082Z   21334.00001157 -.00056039  00000-0 -47001-3 0  9992","REF_FRAME":"TEME","OBJECT_TYPE":"PAYLOAD","CENTER_NAME":"EARTH","OBJECT_ID":"2021-082Z","TIME_SYSTEM":"UTC","MEAN_MOTION_DDOT":"0.0000000000000","COUNTRY_CODE":"US","RA_OF_ASC_NODE":"270.7632","SITE":"AFWTR","EPOCH":"2021-11-30T00:00:00.999648","ARG_OF_PERICENTER":"278.4824","DECAY_DATE":null,"TLE_LINE2":"2 49153  69.9993 270.7632 0003532 278.4824 246.3233 15.69788172 12161","ELEMENT_SET_NO":"999","GP_ID":"190727841","PERIOD":"91.732","SEMIMAJOR_AXIS":"6737.640","NORAD_CAT_ID":"49153","REV_AT_EPOCH":"1216"},{"MEAN_MOTION_DDOT":"0.0000000000000","SITE":"AFWTR","COUNTRY_CODE":"US","RA_OF_ASC_NODE":"270.9905","ARG_OF_PERICENTER":"280.3388","EPOCH":"2021-11-29T22:00:00.999936","TLE_LINE2":"2 49154  69.9994 270.9905 0003412 280.3388 140.1022 15.69767375  3701","DECAY_DATE":null,"GP_ID":"190751682","ELEMENT_SET_NO":"999","PERIOD":"91.733","NORAD_CAT_ID":"49154","REV_AT_EPOCH":"370","SEMIMAJOR_AXIS":"6737.700","LAUNCH_DATE":"2021-09-14","BSTAR":"-0.00027384000000","ECCENTRICITY":"0.00034120","CLASSIFICATION_TYPE":"U","MEAN_MOTION_DOT":"-0.00032799","OBJECT_NAME":"STARLINK-3068","MEAN_MOTION":"15.69767375","PERIAPSIS":"357.266","MEAN_ANOMALY":"140.1022","MEAN_ELEMENT_THEORY":"SGP4","RCS_SIZE":"LARGE","INCLINATION":"69.9994","EPHEMERIS_TYPE":"0","APOAPSIS":"361.863","TLE_LINE1":"1 49154U 21082AA  21333.91667824 -.00032799  00000-0 -27384-3 0  9990","FILE":"3227094","CENTER_NAME":"EARTH","REF_FRAME":"TEME","OBJECT_TYPE":"PAYLOAD","OBJECT_ID":"2021-082AA","TIME_SYSTEM":"UTC"},{"TLE_LINE1":"1 49155U 21082AB  21333.91667824 -.00003044  00000-0 -23710-4 0  9992","APOAPSIS":"362.009","FILE":"3227094","TIME_SYSTEM":"UTC","OBJECT_ID":"2021-082AB","CENTER_NAME":"EARTH","REF_FRAME":"TEME","OBJECT_TYPE":"PAYLOAD","BSTAR":"-0.00002371000000","LAUNCH_DATE":"2021-09-14","ECCENTRICITY":"0.00036280","CLASSIFICATION_TYPE":"U","MEAN_MOTION_DOT":"-0.00003044","OBJECT_NAME":"STARLINK-3060","PERIAPSIS":"357.120","MEAN_ANOMALY":"129.1639","MEAN_ELEMENT_THEORY":"SGP4","RCS_SIZE":"LARGE","INCLINATION":"69.9981","EPHEMERIS_TYPE":"0","MEAN_MOTION":"15.69767522","TLE_LINE2":"2 49155  69.9981 270.9877 0003628 287.0003 129.1639 15.69767522  3708","DECAY_DATE":null,"NORAD_CAT_ID":"49155","REV_AT_EPOCH":"370","SEMIMAJOR_AXIS":"6737.699","GP_ID":"190751279","ELEMENT_SET_NO":"999","PERIOD":"91.733","SITE":"AFWTR","RA_OF_ASC_NODE":"270.9877","COUNTRY_CODE":"US","MEAN_MOTION_DDOT":"0.0000000000000","ARG_OF_PERICENTER":"287.0003","EPOCH":"2021-11-29T22:00:00.999936"}];
